OPS 6582 (TRANSIT 5B-5) 
1 00965U 64083D   23197.76140586  .00000073  00000+0  88148-4 0  9992
2 00965  90.0325 196.7948 0042058 153.7089  19.4646 13.56829866899557
OSCAR 7 (AO-7)          
1 07530U 74089B   23197.41545635 -.00000035  00000+0  69511-4 0  9992
2 07530 101.9479 184.2906 0012371   9.8229 150.4151 12.53665431227073
UOSAT 2 (UO-11)         
1 14781U 84021B   23197.16742198  .00001708  00000+0  20614-3 0  9997
2 14781  97.6588 172.9788 0009769 104.0417 256.1885 14.85000530119446
NOAA 9                  
1 15427U 84123A   23196.76450159  .00000153  00000+0  10050-3 0  9992
2 15427  99.0906 181.4299 0015615 128.6804  45.4807 14.16381895992515
LUSAT (LO-19)           
1 20442U 90005G   23196.93270775  .00000203  00000+0  90335-4 0  9995
2 20442  98.8451 174.0645 0012895  94.0099 266.2559 14.33278774749520
ITAMSAT (IO-26)         
1 22826U 93061D   23197.37499298  .00000159  00000+0  78333-4 0  9994
2 22826  98.8337 240.5957 0008399 335.3680  24.7099 14.30683452554987
RADIO ROSTO (RS-15)     
1 23439U 94085A   23197.80169258 -.00000041  00000+0  46019-4 0  9997
2 23439  64.8129 227.7898 0161810 205.1029 154.1963 11.27575373175959
JAS-2 (FO-29)           
1 24278U 96046B   23197.17469000  .00000030  00000+0  67631-4 0  9996
2 24278  98.5297 171.7804 0349912 341.8971  16.9962 13.53149718329104
NOAA 15                 
1 25338U 98030A   23197.82994278  .00000245  00000+0  11990-3 0  9995
2 25338  98.6041 226.3778 0009553 222.1936 137.8510 14.26352920309486
TECHSAT 1B (GO-32)      
1 25397U 98043D   23197.31217151  .00000096  00000+0  61770-4 0  9992
2 25397  98.8702 155.0221 0002300  68.2201 291.9221 14.23887820299696
ISS (ZARYA)             
1 25544U 98067A   23198.05112892  .00011443  00000+0  20966-3 0  9999
2 25544  51.6400 180.5458 0000416  81.1448  26.7816 15.49795737406429
ORSTED                  
1 25635U 99008B   23197.31574969  .00000488  00000+0  12154-3 0  9998
2 25635  96.4672 334.8512 0136909   4.0194 356.2070 14.49121063287572
PHASE 3D (AO-40)        
1 26609U 00072B   23197.35784234 -.00000265  00000+0  00000+0 0  9992
2 26609   6.1415 176.2297 7913062 177.9152 190.6812  1.25587352104242
PCSAT (NO-44)           
1 26931U 01043C   23197.48676502  .00000206  00000+0  10968-3 0  9993
2 26931  67.0512 121.1716 0007998 267.8071  92.2115 14.30943382137937
SAUDISAT 1C (SO-50)     
1 27607U 02058C   23197.20517301  .00001115  00000+0  17078-3 0  9991
2 27607  64.5532 175.9601 0066249 218.7924 140.8414 14.77397023106729
CUTE-1 (CO-55)          
1 27844U 03031E   23197.78556597  .00000402  00000+0  19868-3 0  9996
2 27844  98.6773 204.6082 0010686  45.4936 314.7114 14.22815287 39970
CUBESAT XI-IV (CO-57)   
1 27848U 03031J   23196.82203119  .00000354  00000+0  17892-3 0  9994
2 27848  98.6809 204.0635 0010814  61.6521 298.5746 14.22320852 39626
MOZHAYETS 4 (RS-22)     
1 27939U 03042A   23197.85424071  .00001258  00000+0  22569-3 0  9994
2 27939  98.2467 345.0437 0013318  47.4595 110.7459 14.68479697 58892
INMARSAT 4-F1           
1 28628U 05009A   23197.43997417 -.00000263  00000+0  00000+0 0  9996
2 28628   3.9362  38.7330 0002409  83.8757 113.2880  1.00272072 66969
NOAA 18                 
1 28654U 05018A   23197.80757038  .00000216  00000+0  13961-3 0  9990
2 28654  98.9092 272.0540 0013215 297.8845  62.0988 14.12970054935754
CUBESAT XI-V            
1 28895U 05043F   23196.60690591  .00001598  00000+0  30158-3 0  9993
2 28895  98.1571 328.4558 0015761 347.3086  12.7718 14.65765218945202
METOP-A                 
1 29499U 06044A   23197.78715111  .00001669  00000+0  22432-3 0  9997
2 29499  98.3991 259.0602 0193292 209.3954 262.5840 14.68662150871378
CARTOSAT-2 (IRS-P7)     
1 29710U 07001B   23197.67068751  .00049247  00000+0  60164-3 0  9994
2 29710  97.8955 337.9017 0092824  94.4243 266.7621 15.55116953896885
CAPE-1                  
1 31130U 07012P   23197.79912486  .00001244  00000+0  26271-3 0  9997
2 31130  98.3087 141.8770 0093623 150.1862 210.4718 14.58452481862538
CARTOSAT-2A             
1 32783U 08021A   23197.79631114  .00001000  00000+0  14335-3 0  9997
2 32783  97.9147 257.7784 0011955 336.1490  23.9165 14.78651507821291
CUTE-1.7+APD II (CO-65) 
1 32785U 08021C   23197.16159408  .00003494  00000+0  34535-3 0  9994
2 32785  97.7067 162.5018 0012403  15.4795 344.6801 14.92504610825213
COMPASS-1               
1 32787U 08021E   23197.37229641  .00006726  00000+0  52092-3 0  9995
2 32787  97.5813 173.1929 0009220 273.0483  86.9687 15.01726391827088
AAUSAT-II               
1 32788U 08021F   23197.22087362  .00009542  00000+0  68565-3 0  9993
2 32788  97.5605 176.0036 0006010 249.4220 110.6362 15.04466161827577
DELFI-C3 (DO-64)        
1 32789U 08021G   23197.82411668  .00063292  00000+0  15553-2 0  9990
2 32789  97.2994 219.1835 0005012  55.3584 304.8134 15.40419732832044
SEEDS II (CO-66)        
1 32791U 08021J   23197.81845897  .00005341  00000+0  46780-3 0  9995
2 32791  97.6575 168.4408 0010318 321.8567  38.1924 14.97067396826172
YUBILEINY (RS-30)       
1 32953U 08025A   23197.74127882  .00000028  00000+0  12750-3 0  9995
2 32953  82.5042 298.7133 0020708 119.8017 240.5125 12.43126686687326
FENGYUN 3A              
1 32958U 08026A   23197.82894506  .00000137  00000+0  86056-4 0  9996
2 32958  98.5565 150.6022 0008142 331.1316  28.9409 14.18889628784260
PRISM (HITOMI)          
1 33493U 09002B   23197.80515305  .00009986  00000+0  66771-3 0  9993
2 33493  98.2432 214.4104 0014302 309.8442  50.1525 15.07107739788212
STARS (KUKAI)           
1 33498U 09002G   23197.78134368  .00002806  00000+0  35856-3 0  9995
2 33498  98.1337 101.1177 0011699  62.4698 297.7702 14.82194281780211
KKS-1 (KISEKI)          
1 33499U 09002H   23197.79474260  .00001348  00000+0  19800-3 0  9996
2 33499  98.1698  90.4886 0009817 126.7318 233.4795 14.77160755778861
NOAA 19                 
1 33591U 09005A   23197.78500441  .00000219  00000+0  14273-3 0  9997
2 33591  99.0978 244.1823 0014368 156.0224 204.1619 14.12787007744129
SWISSCUBE               
1 35932U 09051B   23197.43044056  .00001072  00000+0  24491-3 0  9997
2 35932  98.5177  68.4762 0006196 279.4868  80.5629 14.57802853733512
BEESAT-1                
1 35933U 09051C   23197.11969533  .00000943  00000+0  21723-3 0  9990
2 35933  98.5106  69.4567 0004564 297.4125  62.6608 14.57700902733589
ITUPSAT1                
1 35935U 09051E   23197.11012444  .00000860  00000+0  20327-3 0  9999
2 35935  98.5207  69.3815 0006906 300.7812  59.2705 14.56745325733207
XIWANG-1 (HOPE-1)       
1 36122U 09072B   23197.19464479 -.00000047  00000+0 -86436-5 0  9992
2 36122 100.2393 160.1594 0007760 151.4273 208.7267 13.16384845652720
CARTOSAT-2B             
1 36795U 10035A   23197.76610858  .00001033  00000+0  14762-3 0  9991
2 36795  97.9090 257.6244 0014026  52.4817 307.7667 14.78694556702332
TISAT 1                 
1 36799U 10035E   23197.63359646  .00004479  00000+0  39853-3 0  9991
2 36799  98.1324  68.4196 0010117 233.5815 126.4472 14.96587231706830
FENGYUN 3B              
1 37214U 10059A   23197.85475903  .00000102  00000+0  77354-4 0  9997
2 37214  99.0828 215.7250 0021562 324.8936 158.1949 14.14355902656703
JUGNU                   
1 37839U 11058B   23197.65215709  .00000483  00000+0  11428-3 0  9995
2 37839  19.9616 304.1653 0018721 183.7196 310.8198 14.12975858608060
SRMSAT                  
1 37841U 11058D   23197.23477250  .00000442  00000+0  97856-4 0  9998
2 37841  19.9736  34.3968 0011833 351.1606 164.5951 14.10914016607136
M-CUBED & EXP-1 PRIME   
1 37855U 11061F   23197.41897672  .00024050  00000+0  71936-3 0  9992
2 37855 101.7057 175.6135 0113480 310.6635  48.4767 15.28409765641497
HORYU-2                 
1 38340U 12025D   23197.49500316  .00002658  00000+0  36900-3 0  9999
2 38340  98.1718 286.6142 0011599  49.4454 310.7764 14.78735470600839
METOP-B                 
1 38771U 12049A   23197.81728709  .00000146  00000+0  86583-4 0  9990
2 38771  98.6770 256.6947 0000938  89.3305  56.5643 14.21510647561756
SARAL                   
1 39086U 13009A   23197.16162627  .00000134  00000+0  65992-4 0  9994
2 39086  98.5480  22.0285 0001888 162.7798 197.3450 14.32234048542838
AAUSAT 3                
1 39087U 13009B   23197.80577532  .00000800  00000+0  28471-3 0  9991
2 39087  98.3807  32.1590 0012449 163.6548 196.5042 14.36851369544182
STRAND-1                
1 39090U 13009E   23196.78784455  .00000392  00000+0  15073-3 0  9995
2 39090  98.3880  29.3624 0009019 171.5217 188.6123 14.35629337543844
BRITE-AUSTRIA           
1 39091U 13009F   23196.78884855  .00000244  00000+0  99528-4 0  9995
2 39091  98.3910  28.5945 0010349 179.4526 180.6673 14.35507182543861
UNIBRITE                
1 39092U 13009G   23197.26399877  .00000258  00000+0  10454-3 0  9990
2 39092  98.3947  28.8995 0009401 172.8066 187.3256 14.35379710543880
SOMP                    
1 39134U 13015E   23197.08434979  .00167808  00000+0  13138-2 0  9993
2 39134  64.8419 184.7518 0017819 273.4723  86.4390 15.70638414567896
BEESAT-3                
1 39135U 13015F   23196.97924317  .00040817  00000+0  83625-3 0  9990
2 39135  64.8559 240.2076 0018152 252.5107 107.4049 15.45682515566813
BEESAT-2                
1 39136U 13015G   23197.15116839  .00035328  00000+0  80949-3 0  9991
2 39136  64.8662 251.7169 0028043 274.3355  85.4579 15.42179283566628
NEE-01 PEGASO           
1 39151U 13018B   23197.74416030  .00002421  00000+0  30433-3 0  9993
2 39151  98.0120 307.9705 0017056  59.1441 301.1447 14.82947509552073
CUBEBUG-1 (CAPITAN BETO)
1 39153U 13018D   23197.78672515  .00002845  00000+0  34727-3 0  9991
2 39153  98.0422 314.2205 0016657  53.0280 307.2456 14.84039189552262
ESTCUBE 1               
1 39161U 13021C   23197.67405940  .00001799  00000+0  27824-3 0  9995
2 39161  97.8710 269.1025 0008182 228.8905 131.1599 14.74433862547515
